GLOBALSTAR M067         
1 32263U 07048A   24355.98528899 -.00000086  00000+0  82310-4 0  9994
2 32263  51.9699 197.3632 0001100  36.0971 111.7994 12.40662895787610
GLOBALSTAR M070         
1 32264U 07048B   24356.39172428 -.00000073  00000+0  16940-3 0  9995
2 32264  51.9766 310.1374 0000709  57.0210  85.3321 12.62308107792193
GLOBALSTAR M066         
1 32265U 07048C   24356.50880481 -.00000092  00000+0  42797-4 0  9995
2 32265  51.9641 182.4227 0001695  84.5460 293.2715 12.42168788794242
GLOBALSTAR M068         
1 32266U 07048D   24356.54768722 -.00000056  00000+0  26569-3 0  9991
2 32266  51.9874 123.7548 0001969 108.5780 348.9417 12.62811948795402
GLOBALSTAR M079         
1 37188U 10054A   24356.35245821 -.00000081  00000+0  12799-3 0  9997
2 37188  52.0056 321.1453 0000211  23.5266 140.4145 12.62268421654675
GLOBALSTAR M074         
1 37189U 10054B   24355.95431674 -.00000088  00000+0  90797-4 0  9998
2 37189  52.0033 321.7057 0000580  42.4230 352.3264 12.62260314654553
GLOBALSTAR M076         
1 37190U 10054C   24355.89799581 -.00000081  00000+0  12929-3 0  9990
2 37190  52.0047 322.0336 0000511  11.3663   6.4023 12.62274924654263
GLOBALSTAR M077         
1 37191U 10054D   24355.89791262 -.00000065  00000+0  21466-3 0  9997
2 37191  52.0078 278.8404 0000745  56.1183  20.7188 12.62268544654638
